STARLINK-36530          
1 67514U 26012X   26019.01773773 -.00002725  86142-5  00000+0 0  9999
2 67514  43.0100 248.3700 0007700 319.9700  13.3500 16.05267929    10
STARLINK-36543          
1 67515U 26012Y   26019.01773773 -.00002725  86142-5  00000+0 0  9990
2 67515  43.0100 248.3700 0007700 319.9700  13.3500 16.05267929    11
STARLINK-36537          
1 67516U 26012Z   26019.01773773 -.00002725  86142-5  00000+0 0  9991
2 67516  43.0100 248.3700 0007700 319.9700  13.3500 16.05267929    12
STARLINK-36544          
1 67517U 26012AA  26019.01773773 -.00002725  86142-5  00000+0 0  9992
2 67517  43.0100 248.3700 0007700 319.9700  13.3500 16.05267929    13
STARLINK-36412          
1 67518U 26012AB  26019.01773773 -.00002725  86142-5  00000+0 0  9993
2 67518  43.0100 248.3700 0007700 319.9700  13.3500 16.05267929    14
STARLINK-36415          
1 67519U 26012AC  26019.01773773 -.00002725  86142-5  00000+0 0  9994
2 67519  43.0100 248.3700 0007700 319.9700  13.3500 16.05267929    15
STARLINK-36547          
1 67520U 26012AD  26019.01773773 -.00002725  86142-5  00000+0 0  9996
2 67520  43.0100 248.3700 0007700 319.9700  13.3500 16.05267929    17
STARLINK-36444          
1 67521U 26012AE  26019.01773773 -.00002725  86142-5  00000+0 0  9997
2 67521  43.0100 248.3700 0007700 319.9700  13.3500 16.05267929    18
HULIANWANG DIGUI-146    
1 67522U 26013A   26026.23379269  .00000108  00000+0  18233-3 0  9999
2 67522  50.0262 157.3067 0014858 254.7079 105.2180 13.97185996   979
HULIANWANG DIGUI-147    
1 67523U 26013B   26025.58955086 -.00000117  00000+0  22481-4 0  9996
2 67523  50.0091 159.9031 0011081 256.0324 103.9346 13.97622669   884
HULIANWANG DIGUI-148    
1 67524U 26013C   26021.44230141 -.00000137  00000+0  86600-5 0  9992
2 67524  50.0070 176.6144 0010785 240.3737 119.6091 13.98087765   308
HULIANWANG DIGUI-149    
1 67525U 26013D   26021.15633713 -.00000091  00000+0  40401-4 0  9990
2 67525  50.0063 177.7692 0010538 247.0477 112.9313 13.98123959   266
